0 SL-16 DEB
1 22806U 93059E   13282.18655318  .00000123  00000-0  15459-3 0  9204
2 22806 071.0211 238.9341 0199900 111.5082 330.4588 13.72884594  5173
0 SL-16 DEB
1 22806U 93059E   13287.30124137  .00000136  00000-0  16686-3 0  9222
2 22806 071.0218 228.9270 0199853 104.1618 049.3083 13.72886183  5879
0 SL-16 DEB
1 22806U 93059E   13290.19854405  .00000180  00000-0  20777-3 0  9237
2 22806 071.0220 223.2588 0199842 099.9953 328.9654 13.72887260  6275
0 SL-16 DEB
1 22806U 93059E   13292.39340260  .00000182  00000-0  21006-3 0  9249
2 22806 071.0218 218.9649 0199869 096.8363 016.8640 13.72888197  6572
0 SL-16 DEB
1 22806U 93059E   13294.85934397  .00000169  00000-0  19789-3 0  9253
2 22806 071.0217 214.1407 0199875 093.2908 324.5711 13.72889646  6910
